NORAD_CAT_ID,OBJECT_NAME,OBJECT_TYPE,EPOCH,MEAN_MOTION,ECCENTRICITY,INCLINATION,RA_OF_ASC_NODE,ARG_OF_PERICENTER,MEAN_ANOMALY,BSTAR,MEAN_MOTION_DOT,MEAN_MOTION_DDOT,TLE_LINE0,TLE_LINE1,TLE_LINE2,SEMIMAJOR_AXIS,PERIOD,APOGEE,PERIGEE,DECAYED
53933.0,STARLINK-4782,PAYLOAD,2022-12-26 00:00:00,15.49902854,0.0001272,53.2132,158.3849,31.6886,357.4391,0.00032497,0.00018046,0.0,0 STARLINK-4782,1 53933U 22119AZ  22360.00001157  .00018046  00000-0  32497-3 0  9992,2 53933  53.2132 158.3849 0001272  31.6886 357.4391 15.49902854  1306,6795.147,92.909,417.876,416.148,0.0
53933.0,STARLINK-4782,PAYLOAD,2022-12-26 14:00:01,15.49943354,0.0001248,53.214,155.596,39.2822,6.4941,-0.00037648,-0.00021803,0.0,0 STARLINK-4782,1 53933U 22119AZ  22360.58334491 -.00021803  00000-0 -37648-3 0  9995,2 53933  53.2140 155.5960 0001248  39.2822   6.4941 15.49943354 15009,6795.029,92.907,417.742,416.046,0.0
53933.0,STARLINK-4782,PAYLOAD,2022-12-27 00:00:00,15.49959831,0.0001439,53.2138,153.6053,33.3399,178.6556,-6.641600000000001e-05,-4.229e-05,0.0,0 STARLINK-4782,1 53933U 22119AZ  22361.00001157 -.00004229  00000-0 -66416-4 0  9992,2 53933  53.2138 153.6053 0001439  33.3399 178.6556 15.49959831  1303,6794.98,92.906,417.823,415.86800000000005,0.0
53933.0,STARLINK-4782,PAYLOAD,2022-12-27 06:00:00,15.49959387,0.0001367,53.214,152.4088,39.2792,128.4728,-0.00081664,-0.00046647,0.0,0 STARLINK-4782,1 53933U 22119AZ  22361.25001157 -.00046647  00000-0 -81664-3 0  9990,2 53933  53.2140 152.4088 0001367  39.2792 128.4728 15.49959387 15106,6794.982,92.906,417.776,415.918,0.0
53933.0,STARLINK-4782,PAYLOAD,2022-12-27 14:00:01,15.49930233,0.0001569,53.2141,150.8166,43.1301,185.604,-0.0001019,-6.24e-05,0.0,0 STARLINK-4782,1 53933U 22119AZ  22361.58334491 -.00006240  00000-0 -10190-3 0  9997,2 53933  53.2141 150.8166 0001569  43.1301 185.6040 15.49930233  1308,6795.066999999999,92.907,417.99800000000016,415.866,0.0
53933.0,STARLINK-4782,PAYLOAD,2022-12-27 22:00:00,15.49950454,0.0001647,53.2135,149.2243,35.4653,254.2317,-0.0012285,-0.00069721,0.0,0 STARLINK-4782,1 53933U 22119AZ  22361.91667824 -.00069721  00000-0 -12285-2 0  9992,2 53933  53.2135 149.2243 0001647  35.4653 254.2317 15.49950454 15201,6795.0080000000025,92.906,417.992,415.754,0.0
53933.0,STARLINK-4782,PAYLOAD,2022-12-28 14:00:01,15.49856497,0.0001635,53.2135,146.0374,42.9699,8.5653,-0.00035025,-0.00020259,0.0,0 STARLINK-4782,1 53933U 22119AZ  22362.58334491 -.00020259  00000-0 -35025-3 0  9998,2 53933  53.2135 146.0374 0001635  42.9699   8.5653 15.49856497  1302,6795.281999999997,92.912,418.259,416.036,0.0
53933.0,STARLINK-4782,PAYLOAD,2022-12-28 22:00:00,15.49842382,0.0001779,53.2138,144.4445,37.8461,74.5604,0.00069778,0.00039291,0.0,0 STARLINK-4782,1 53933U 22119AZ  22362.91667824  .00039291  00000-0  69778-3 0  9990,2 53933  53.2138 144.4445 0001779  37.8461  74.5604 15.49842382 15363,6795.324000000001,92.913,418.398,415.98,0.0
53933.0,STARLINK-4782,PAYLOAD,2022-12-29 06:00:02,15.49997019,0.0001595999999999,53.2152,142.8478,46.5913,126.7417,-0.0080798,-0.00436146,0.0,0 STARLINK-4782,1 53933U 22119AZ  22363.25002315 -.00436146  00000-0 -80798-2 0  9992,2 53933  53.2152 142.8478 0001596  46.5913 126.7417 15.49997019 15419,6794.871999999999,92.903,417.821,415.652,0.0
53933.0,STARLINK-4782,PAYLOAD,2022-12-29 14:00:01,15.49824407,0.0001424,53.2168,141.2546,56.0485,178.0677,-0.01945,-0.01005289,0.0,0 STARLINK-4782,1 53933U 22119AZ  22363.58334491 -.01005289  00000-0 -19450-1 0  9998,2 53933  53.2168 141.2546 0001424  56.0485 178.0677 15.49824407 15468,6795.376,92.914,418.209,416.274,0.0
53933.0,STARLINK-4782,PAYLOAD,2022-12-29 22:00:00,15.49017541,0.0001574,53.2165,139.6634,34.3526,260.2093,-0.020209,-0.01014219,0.0,0 STARLINK-4782,1 53933U 22119AZ  22363.91667824 -.01014219  00000-0 -20209-1 0  9991,2 53933  53.2165 139.6634 0001574  34.3526 260.2093 15.49017541 15510,6797.736,92.962,420.671,418.531,0.0
53933.0,STARLINK-4782,PAYLOAD,2022-12-30 06:00:00,15.48287812,0.0001625,53.217,138.0712,30.5007,323.4957,-0.023375,-0.01147476,0.0,0 STARLINK-4782,1 53933U 22119AZ  22364.25001157 -.01147476  00000-0 -23375-1 0  9999,2 53933  53.2170 138.0712 0001625  30.5007 323.4957 15.48287812 15571,6799.871999999999,93.006,422.842,420.632,0.0
53933.0,STARLINK-4782,PAYLOAD,2022-12-30 14:00:01,15.47477973,0.0001610999999999,53.217,136.484,36.5544,15.9339,-0.024177,-0.01153071,0.0,0 STARLINK-4782,1 53933U 22119AZ  22364.58334491 -.01153071  00000-0 -24177-1 0  9994,2 53933  53.2170 136.4840 0001611  36.5544  15.9339 15.47477973  1303,6802.244000000002,93.055,425.205,423.013,0.0
53933.0,STARLINK-4782,PAYLOAD,2022-12-31 06:00:00,15.45843629,0.0001861,53.2172,133.3119,35.0386,131.5086,-0.025341,-0.01142805,0.0,0 STARLINK-4782,1 53933U 22119AZ  22365.25001157 -.01142805  00000-0 -25341-1 0  9996,2 53933  53.2172 133.3119 0001861  35.0386 131.5086 15.45843629 15723,6807.0369999999975,93.153,430.169,427.636,0.0
53933.0,STARLINK-4782,PAYLOAD,2022-12-31 14:00:01,15.45066657,0.0001621,53.217,131.7311,47.7076,174.3814,-0.027273,-0.01192547,0.0,0 STARLINK-4782,1 53933U 22119AZ  22365.58334491 -.01192547  00000-0 -27273-1 0  9996,2 53933  53.2170 131.7311 0001621  47.7076 174.3814 15.45066657  1308,6809.319,93.2,432.288,430.08,0.0
53933.0,STARLINK-4782,PAYLOAD,2022-12-31 22:00:00,15.44222004,0.0001619,53.2164,130.151,40.9496,235.7371,-0.026998,-0.01150692,0.0,0 STARLINK-4782,1 53933U 22119AZ  22365.91667824 -.01150692  00000-0 -26998-1 0  9990,2 53933  53.2164 130.1510 0001619  40.9496 235.7371 15.44222004  1302,6811.802,93.251,434.77,432.564,0.0
53933.0,STARLINK-4782,PAYLOAD,2023-01-01 06:00:00,15.43403171,0.0001582,53.217,128.5708,38.774,291.5209,-0.027562,-0.01143079,0.0,0 STARLINK-4782,1 53933U 22119AZ  23001.25001157 -.01143079  00000-0 -27562-1 0  9995,2 53933  53.2170 128.5708 0001582  38.7740 291.5209 15.43403171 15877,6814.2109999999975,93.3,437.154,434.99800000000016,0.0
53933.0,STARLINK-4782,PAYLOAD,2023-01-01 14:00:01,15.42607235,0.0001587,53.2169,126.9955,41.74100000000001,341.1718,-0.028982,-0.01167644,0.0,0 STARLINK-4782,1 53933U 22119AZ  23001.58334491 -.01167644  00000-0 -28982-1 0  9992,2 53933  53.2169 126.9955 0001587  41.7410 341.1718 15.42607235  1300,6816.555,93.348,439.502,437.338,0.0
53933.0,STARLINK-4782,PAYLOAD,2023-01-02 00:00:00,15.41571512,0.0001873,53.217,125.0268,37.2021,140.1288,-0.029278,-0.01141609,0.0,0 STARLINK-4782,1 53933U 22119AZ  23002.00001157 -.01141609  00000-0 -29278-1 0  9992,2 53933  53.2170 125.0268 0001873  37.2021 140.1288 15.41571512  1301,6819.608,93.411,442.75,440.195,0.0
53933.0,STARLINK-4782,PAYLOAD,2023-01-02 06:00:00,15.40988612,0.0001774,53.2167,123.8471,27.8622,97.3673,-0.030938,-0.01179346,0.0,0 STARLINK-4782,1 53933U 22119AZ  23002.25001157 -.01179346  00000-0 -30938-1 0  9993,2 53933  53.2167 123.8471 0001774  27.8622  97.3673 15.40988612 16030,6821.3269999999975,93.447,444.402,441.982,0.0
53933.0,STARLINK-4782,PAYLOAD,2023-01-02 14:00:01,15.40183734,0.0001604,53.2168,122.2774,47.0445,127.874,-0.032133,-0.0119124,0.0,0 STARLINK-4782,1 53933U 22119AZ  23002.58334491 -.01191240  00000-0 -32133-1 0  9995,2 53933  53.2168 122.2774 0001604  47.0445 127.8740 15.40183734  1309,6823.704000000002,93.495,446.663,444.474,0.0
53933.0,STARLINK-4782,PAYLOAD,2023-01-02 22:00:00,15.39368022,0.0001735,53.2163,120.7087,37.0005,186.635,-0.032951,-0.0118919,0.0,0 STARLINK-4782,1 53933U 22119AZ  23002.91667824 -.01189190  00000-0 -32951-1 0  9990,2 53933  53.2163 120.7087 0001735  37.0005 186.6350 15.39368022  1303,6826.114000000001,93.545,449.163,446.795,0.0
53933.0,STARLINK-4782,PAYLOAD,2023-01-03 14:00:01,15.37724136,0.0001473,53.2168,117.5767,48.6094,269.5315,-0.034042,-0.01166019,0.0,0 STARLINK-4782,1 53933U 22119AZ  23003.58334491 -.01166019  00000-0 -34042-1 0  9993,2 53933  53.2168 117.5767 0001473  48.6094 269.5315 15.37724136  1304,6830.978,93.645,453.849,451.837,0.0
53933.0,STARLINK-4782,PAYLOAD,2023-01-04 14:00:01,15.35271755,0.0001621,53.217,112.8934,41.1038,51.5192,-0.036304,-0.01149924,0.0,0 STARLINK-4782,1 53933U 22119AZ  23004.58335648 -.01149924  00000-0 -36304-1 0  9998,2 53933  53.2170 112.8934 0001621  41.1038  51.5192 15.35271755 16391,6838.25,93.794,461.224,459.007,0.0
53933.0,STARLINK-4782,PAYLOAD,2023-01-04 22:00:00,15.34458173,0.0001913,53.2167,111.3357,34.8865,100.5212,-0.037247,-0.01149492,0.0,0 STARLINK-4782,1 53933U 22119AZ  23004.91667824 -.01149492  00000-0 -37247-1 0  9996,2 53933  53.2167 111.3357 0001913  34.8865 100.5212 15.34458173  1304,6840.667,93.844,463.841,461.224,0.0
53933.0,STARLINK-4782,PAYLOAD,2023-01-05 14:00:01,15.3286243,0.0001413,53.2171,108.2275,56.3928,161.7627,-0.040803,-0.01192395,0.0,0 STARLINK-4782,1 53933U 22119AZ  23005.58334491 -.01192395  00000-0 -40803-1 0  9993,2 53933  53.2171 108.2275 0001413  56.3928 161.7627 15.32862430 16541,6845.4140000000025,93.942,468.246,466.312,0.0
53933.0,STARLINK-4782,PAYLOAD,2023-01-05 20:00:01,15.32212415,0.0001496999999999,53.2172,107.0632,55.9824,102.2203,-0.039554,-0.01137573,0.0,0 STARLINK-4782,1 53933U 22119AZ  23005.83334491 -.01137573  00000-0 -39554-1 0  9999,2 53933  53.2172 107.0632 0001497  55.9824 102.2203 15.32212415  1308,6847.35,93.982,470.24,468.19,0.0
53933.0,STARLINK-4782,PAYLOAD,2023-01-06 06:00:00,15.31205866,0.0001483,53.2171,105.1247,47.4792,249.5427,-0.041357,-0.01151043,0.0,0 STARLINK-4782,1 53933U 22119AZ  23006.25001157 -.01151043  00000-0 -41357-1 0  9998,2 53933  53.2171 105.1247 0001483  47.4792 249.5427 15.31205866 16640,6850.35,94.044,473.231,471.199,0.0
53933.0,STARLINK-4782,PAYLOAD,2023-01-06 22:00:00,15.29579069,0.0001605,53.2169,102.0323,41.4303,330.5325,-0.043626,-0.01153839,0.0,0 STARLINK-4782,1 53933U 22119AZ  23006.91667824 -.01153839  00000-0 -43626-1 0  9996,2 53933  53.2169 102.0323 0001605  41.4303 330.5325 15.29579069  1307,6855.206999999999,94.144,478.172,475.971,0.0
